NORAD_CAT_ID,OBJECT_NAME,OBJECT_TYPE,EPOCH,MEAN_MOTION,ECCENTRICITY,INCLINATION,RA_OF_ASC_NODE,ARG_OF_PERICENTER,MEAN_ANOMALY,BSTAR,MEAN_MOTION_DOT,MEAN_MOTION_DDOT,TLE_LINE0,TLE_LINE1,TLE_LINE2,SEMIMAJOR_AXIS,PERIOD,APOGEE,PERIGEE,DECAYED
53263.0,STARLINK-4130,PAYLOAD,2022-09-08 14:00:01,15.55127007,0.0001054,53.2176,176.0112,68.3814,317.3443,-0.0170069999999999,-0.01060163,0.0,0 STARLINK-4130,1 53263U 22086X   22251.58334491 -.01060163  00000-0 -17007-1 0  9991,2 53263  53.2176 176.0112 0001054  68.3814 317.3443 15.55127007  1305,6779.92,92.597,402.5,401.071,0.0
53263.0,STARLINK-4130,PAYLOAD,2022-09-08 22:00:00,15.54418507,0.0001059,53.2176,174.4071,78.9393,13.5064,-0.018623,-0.01124159,0.0,0 STARLINK-4130,1 53263U 22086X   22251.91667824 -.01124159  00000-0 -18623-1 0  9998,2 53263  53.2176 174.4071 0001059  78.9393  13.5064 15.54418507  7920,6781.98,92.639,404.564,403.127,0.0
53263.0,STARLINK-4130,PAYLOAD,2022-09-09 14:00:01,15.52847601,0.0001245,53.2174,171.2087,74.5088,148.7205,-0.018441,-0.01057521,0.0,0 STARLINK-4130,1 53263U 22086X   22252.58334491 -.01057521  00000-0 -18441-1 0  9999,2 53263  53.2174 171.2087 0001245  74.5088 148.7205 15.52847601  1303,6786.554,92.733,409.264,407.574,0.0
53263.0,STARLINK-4130,PAYLOAD,2022-09-09 22:00:00,15.52089278,0.0001192,53.2176,169.6123,75.0857,212.1518,-0.01899,-0.01059235,0.0,0 STARLINK-4130,1 53263U 22086X   22252.91667824 -.01059235  00000-0 -18990-1 0  9998,2 53263  53.2176 169.6123 0001192  75.0857 212.1518 15.52089278  1309,6788.764,92.778,411.43800000000016,409.82,0.0
53263.0,STARLINK-4130,PAYLOAD,2022-09-10 04:00:00,15.51518839,0.0001220999999999,53.2175,168.4169,76.9579,167.6871,-0.019353,-0.01057625,0.0,0 STARLINK-4130,1 53263U 22086X   22253.16667824 -.01057625  00000-0 -19353-1 0  9991,2 53263  53.2175 168.4169 0001221  76.9579 167.6871 15.51518839  8110,6790.428000000001,92.812,413.122,411.464,0.0
53263.0,STARLINK-4130,PAYLOAD,2022-09-10 12:00:00,15.50652368,0.0001029,53.2175,166.8206,72.7735,234.3045,-0.014184,-0.00762664,0.0,0 STARLINK-4130,1 53263U 22086X   22253.50001157 -.00762664  00000-0 -14184-1 0  9992,2 53263  53.2175 166.8206 0001029  72.7735 234.3045 15.50652368  8163,6792.956999999999,92.864,415.521,414.12300000000016,0.0
53263.0,STARLINK-4130,PAYLOAD,2022-09-10 14:00:01,15.50443659,9.04e-05,53.2174,166.4217,75.1512,337.3868,-0.01145,-0.00613775,0.0,0 STARLINK-4130,1 53263U 22086X   22253.58334491 -.00613775  00000-0 -11450-1 0  9991,2 53263  53.2174 166.4217 0000904  75.1512 337.3868 15.50443659  1308,6793.566999999999,92.877,416.046,414.818,0.0
53263.0,STARLINK-4130,PAYLOAD,2022-09-10 20:00:01,15.49993581,0.0001069,53.2175,165.227,76.8002,291.7915,-0.0030219,-0.00168957,0.0,0 STARLINK-4130,1 53263U 22086X   22253.83334491 -.00168957  00000-0 -30219-2 0  9991,2 53263  53.2175 165.2270 0001069  76.8002 291.7915 15.49993581  8226,6794.882,92.904,417.473,416.02,0.0
53263.0,STARLINK-4130,PAYLOAD,2022-09-10 22:00:00,15.49892359,0.0001078,53.2175,164.8293,73.0526,40.8181,-0.00022922,-0.00013441,0.0,0 STARLINK-4130,1 53263U 22086X   22253.91667824 -.00013441  00000-0 -22922-3 0  9999,2 53263  53.2175 164.8293 0001078  73.0526  40.8181 15.49892359  1307,6795.178000000001,92.91,417.775,416.31,0.0
53263.0,STARLINK-4130,PAYLOAD,2022-09-11 06:00:00,15.49884079,0.0001199,53.2173,163.2372,70.7582,104.0291,5.7145e-05,2.793e-05,0.0,0 STARLINK-4130,1 53263U 22086X   22254.25001157  .00002793  00000-0  57145-4 0  9990,2 53263  53.2173 163.2372 0001199  70.7582 104.0291 15.49884079  8285,6795.2019999999975,92.91,417.882,416.252,0.0
53263.0,STARLINK-4130,PAYLOAD,2022-09-11 14:00:01,15.49859008,0.0001195,53.2167,161.6322,75.6105,160.1764,0.001001,0.00056721,0.0,0 STARLINK-4130,1 53263U 22086X   22254.58334491  .00056721  00000-0  10010-2 0  9994,2 53263  53.2167 161.6322 0001195  75.6105 160.1764 15.49859008  1304,6795.275,92.912,417.952,416.328,0.0
53263.0,STARLINK-4130,PAYLOAD,2022-09-11 22:00:00,15.49932379,0.0001211999999999,53.2165,160.0404,72.9654,223.7218,-0.00214,-0.00120262,0.0,0 STARLINK-4130,1 53263U 22086X   22254.91667824 -.00120262  00000-0 -21400-2 0  9999,2 53263  53.2165 160.0404 0001212  72.9654 223.7218 15.49932379  1308,6795.061,92.907,417.749,416.102,0.0
53263.0,STARLINK-4130,PAYLOAD,2022-09-12 06:00:00,15.49837932,0.0001119,53.2159,158.4481,60.2753,297.3325,0.00066628,0.00037482,0.0,0 STARLINK-4130,1 53263U 22086X   22255.25001157  .00037482  00000-0  66628-3 0  9999,2 53263  53.2159 158.4481 0001119  60.2753 297.3325 15.49837932  8440,6795.337,92.913,417.962,416.441,0.0
53263.0,STARLINK-4130,PAYLOAD,2022-09-12 14:00:01,15.49835421,0.0001,53.2158,156.8533,76.2115,342.2773,0.0010959,0.00062132,0.0,0 STARLINK-4130,1 53263U 22086X   22255.58334491  .00062132  00000-0  10959-2 0  9990,2 53263  53.2158 156.8533 0001000  76.2115 342.2773 15.49835421  1303,6795.344,92.913,417.889,416.53,0.0
53263.0,STARLINK-4130,PAYLOAD,2022-09-12 22:00:00,15.49887916,0.0001066999999999,53.2156,155.2616,70.8534,48.5097,-0.00021982,-0.00012908,0.0,0 STARLINK-4130,1 53263U 22086X   22255.91667824 -.00012908  00000-0 -21982-3 0  9993,2 53263  53.2156 155.2616 0001067  70.8534  48.5097 15.49887916  1305,6795.191,92.91,417.781,416.331,0.0
53263.0,STARLINK-4130,PAYLOAD,2022-09-13 06:00:00,15.49885199,0.0001078,53.2151,153.6692,64.2007,116.0713,0.00046781,0.00026188,0.0,0 STARLINK-4130,1 53263U 22086X   22256.25001157  .00026188  00000-0  46781-3 0  9999,2 53263  53.2151 153.6692 0001078  64.2007 116.0713 15.49885199  8595,6795.199000000001,92.91,417.796,416.331,0.0
53263.0,STARLINK-4130,PAYLOAD,2022-09-13 14:00:01,15.49877843,9.5e-05,53.2151,152.0741,79.2397,161.9649,0.0011414,0.00064851,0.0,0 STARLINK-4130,1 53263U 22086X   22256.58334491  .00064851  00000-0  11414-2 0  9998,2 53263  53.2151 152.0741 0000950  79.2397 161.9649 15.49877843  1305,6795.22,92.911,417.731,416.44,0.0
53263.0,STARLINK-4130,PAYLOAD,2022-09-13 22:00:00,15.49991962,8.96e-05,53.2162,150.4858,79.4965,222.6241,-0.003058,-0.00170915,0.0,0 STARLINK-4130,1 53263U 22086X   22256.91667824 -.00170915  00000-0 -30580-2 0  9990,2 53263  53.2162 150.4858 0000896  79.4965 222.6241 15.49991962  1302,6794.887,92.904,417.36,416.143,0.0
53263.0,STARLINK-4130,PAYLOAD,2022-09-14 06:00:00,15.50098443,0.0001094,53.2163,148.8962,53.9491,309.0938,-0.011793,-0.00623659,0.0,0 STARLINK-4130,1 53263U 22086X   22257.25001157 -.00623659  00000-0 -11793-1 0  9991,2 53263  53.2163 148.8962 0001094  53.9491 309.0938 15.50098443  8755,6794.575,92.897,417.184,415.697,0.0
53263.0,STARLINK-4130,PAYLOAD,2022-09-14 14:00:01,15.49780721,0.0001258,53.2172,147.3055,58.0792,5.8372,-0.016787,-0.00865237,0.0,0 STARLINK-4130,1 53263U 22086X   22257.58334491 -.00865237  00000-0 -16787-1 0  9995,2 53263  53.2172 147.3055 0001258  58.0792   5.8372 15.49780721  1306,6795.504,92.916,418.224,416.514,0.0
53263.0,STARLINK-4130,PAYLOAD,2022-09-14 20:00:01,15.4934336,0.000113,53.2176,146.1149,67.9642,311.3339,-0.020987,-0.01060713,0.0,0 STARLINK-4130,1 53263U 22086X   22257.83334491 -.01060713  00000-0 -20987-1 0  9997,2 53263  53.2176 146.1149 0001130  67.9642 311.3339 15.49343360  8841,6796.783,92.943,419.416,417.88,0.0
53263.0,STARLINK-4130,PAYLOAD,2022-09-14 22:00:00,15.49167751,0.0001302,53.2173,145.7163,84.2026,40.1191,-0.021387,-0.0107302,0.0,0 STARLINK-4130,1 53263U 22086X   22257.91667824 -.01073020  00000-0 -21387-1 0  9995,2 53263  53.2173 145.7163 0001302  84.2026  40.1191 15.49167751  1303,6797.295999999999,92.953,420.046,418.276,0.0
53263.0,STARLINK-4130,PAYLOAD,2022-09-15 14:00:01,15.47650441,0.0001341999999999,53.2172,142.5401,70.3948,172.1532,-0.02276,-0.01081565,0.0,0 STARLINK-4130,1 53263U 22086X   22258.58334491 -.01081565  00000-0 -22760-1 0  9999,2 53263  53.2172 142.5401 0001342  70.3948 172.1532 15.47650441  1301,6801.738,93.044,424.516,422.691,0.0
53263.0,STARLINK-4130,PAYLOAD,2022-09-15 22:00:00,15.46872424,0.000126,53.2175,140.9588,64.8642,235.4326,-0.0227759999999999,-0.01055838,0.0,0 STARLINK-4130,1 53263U 22086X   22258.91667824 -.01055838  00000-0 -22776-1 0  9996,2 53263  53.2175 140.9588 0001260  64.8642 235.4326 15.46872424  1300,6804.019,93.091,426.741,425.027,0.0
53263.0,STARLINK-4130,PAYLOAD,2022-09-16 00:00:00,15.46667118,0.0001038,53.2175,140.5618,64.486,340.1122,-0.022459,-0.01035648,0.0,0 STARLINK-4130,1 53263U 22086X   22259.00001157 -.01035648  00000-0 -22459-1 0  9993,2 53263  53.2175 140.5618 0001038  64.4860 340.1122 15.46667118  9028,6804.621,93.103,427.192,425.78,0.0
53263.0,STARLINK-4130,PAYLOAD,2022-09-16 14:00:01,15.45352778,0.0001171999999999,53.2174,137.7932,64.5654,348.4789,-0.023999,-0.01055447,0.0,0 STARLINK-4130,1 53263U 22086X   22259.58334491 -.01055447  00000-0 -23999-1 0  9995,2 53263  53.2174 137.7932 0001172  64.5654 348.4789 15.45352778  1300,6808.479,93.183,431.142,429.546,0.0
53263.0,STARLINK-4130,PAYLOAD,2022-09-16 16:00:00,15.451641199999996,0.000136,53.2177,137.3985,68.7481,88.1315,-0.024161,-0.01055712,0.0,0 STARLINK-4130,1 53263U 22086X   22259.66667824 -.01055712  00000-0 -24161-1 0  9990,2 53263  53.2177 137.3985 0001360  68.7481  88.1315 15.45164120  9123,6809.033,93.194,431.824,429.972,0.0
53263.0,STARLINK-4130,PAYLOAD,2022-09-16 22:00:00,15.44595114,0.0001355,53.2174,136.2159,60.6906,47.3556,-0.024684,-0.01057494,0.0,0 STARLINK-4130,1 53263U 22086X   22259.91667824 -.01057494  00000-0 -24684-1 0  9997,2 53263  53.2174 136.2159 0001355  60.6906  47.3556 15.44595114  1304,6810.705,93.228,433.49300000000005,431.647,0.0
53263.0,STARLINK-4130,PAYLOAD,2022-09-17 14:00:01,15.43075798,0.0001324,53.2173,133.0611,75.9996,139.3177,-0.025987,-0.01071914,0.0,0 STARLINK-4130,1 53263U 22086X   22260.58334491 -.01071914  00000-0 -25987-1 0  9993,2 53263  53.2173 133.0611 0001324  75.9996 139.3177 15.43075798  9269,6815.175,93.32,437.942,436.138,0.0
